NORAD_CAT_ID,OBJECT_NAME,OBJECT_TYPE,EPOCH,MEAN_MOTION,ECCENTRICITY,INCLINATION,RA_OF_ASC_NODE,ARG_OF_PERICENTER,MEAN_ANOMALY,BSTAR,MEAN_MOTION_DOT,MEAN_MOTION_DDOT,TLE_LINE0,TLE_LINE1,TLE_LINE2,SEMIMAJOR_AXIS,PERIOD,APOGEE,PERIGEE,DECAYED
53559.0,STARLINK-4508,PAYLOAD,2023-05-08 19:02:04,15.08846514,0.0001248,53.2175,34.4362,84.5801,275.5333,0.00011706,1.576e-05,0.0,0 STARLINK-4508,1 53559U 22101AJ  23128.79310843  .00001576  00000-0  11706-3 0  9991,2 53559  53.2175  34.4362 0001248  84.5801 275.5333 15.08846514 39928,6917.86,95.437,540.589,538.862,0.0
53559.0,STARLINK-4508,PAYLOAD,2023-05-08 22:12:50,15.08849582,0.0001255,53.2174,33.8425,80.9013,279.2121,0.00019512,2.82e-05,0.0,0 STARLINK-4508,1 53559U 22101AJ  23128.92558737  .00002820  00000-0  19512-3 0  9998,2 53559  53.2174  33.8425 0001255  80.9013 279.2121 15.08849582 39949,6917.851,95.437,540.584,538.848,0.0
53559.0,STARLINK-4508,PAYLOAD,2023-05-09 02:58:59,15.08860641,0.00013,53.2171,32.9496,84.6612,275.4528,0.00057517,8.883e-05,0.0,0 STARLINK-4508,1 53559U 22101AJ  23129.12430484  .00008883  00000-0  57517-3 0  9991,2 53559  53.2171  32.9496 0001300  84.6612 275.4528 15.08860641 39972,6917.817,95.436,540.582,538.783,0.0
53559.0,STARLINK-4508,PAYLOAD,2023-05-09 23:39:00,15.08851564,0.0001138,53.2163,29.0858,95.7265,264.3857,0.00027733,4.13e-05,0.0,0 STARLINK-4508,1 53559U 22101AJ  23129.98542543  .00004130  00000-0  27733-3 0  9993,2 53559  53.2163  29.0858 0001138  95.7265 264.3857 15.08851564 40101,6917.845,95.437,540.497,538.923,0.0
53559.0,STARLINK-4508,PAYLOAD,2023-05-10 23:29:47,15.08849441,0.0001204,53.2171,24.6232,91.7895,268.3235,0.00061712,9.55e-05,0.0,0 STARLINK-4508,1 53559U 22101AJ  23130.97902668  .00009550  00000-0  61712-3 0  9998,2 53559  53.2171  24.6232 0001204  91.7895 268.3235 15.08849441 40257,6917.852,95.437,540.549,538.884,0.0
53559.0,STARLINK-4508,PAYLOAD,2023-05-11 23:20:35,15.08836356,0.0001107,53.217,20.1664,78.838,281.2736,0.00077031,0.00011992,0.0,0 STARLINK-4508,1 53559U 22101AJ  23131.97263498  .00011992  00000-0  77031-3 0  9994,2 53559  53.2170  20.1664 0001107  78.8380 281.2736 15.08836356 40401,6917.892,95.438,540.522,538.991,0.0
53559.0,STARLINK-4508,PAYLOAD,2023-05-12 21:35:59,15.08851792,0.0001034,53.2171,16.0017,68.4364,291.6738,0.00058472,9.033e-05,0.0,0 STARLINK-4508,1 53559U 22101AJ  23132.89999232  .00009033  00000-0  58472-3 0  9999,2 53559  53.2171  16.0017 0001034  68.4364 291.6738 15.08851792 40547,6917.844,95.437,540.425,538.994,0.0
53559.0,STARLINK-4508,PAYLOAD,2023-05-13 19:51:23,15.08844537,0.0001065,53.2175,11.8417,76.3613,283.7498,0.00022891,3.358e-05,0.0,0 STARLINK-4508,1 53559U 22101AJ  23133.82735413  .00003358  00000-0  22891-3 0  9992,2 53559  53.2175  11.8417 0001065  76.3613 283.7498 15.08844537 40686,6917.867,95.437,540.468,538.995,0.0
53559.0,STARLINK-4508,PAYLOAD,2023-05-13 21:26:46,15.08844721,0.000108,53.2173,11.5437,71.4809,288.6301,0.00023963,3.528e-05,0.0,0 STARLINK-4508,1 53559U 22101AJ  23133.89359414  .00003528  00000-0  23963-3 0  9992,2 53559  53.2173  11.5437 0001080  71.4809 288.6301 15.08844721 40696,6917.866,95.437,540.478,538.984,0.0
53559.0,STARLINK-4508,PAYLOAD,2023-05-13 23:02:09,15.08844698,0.0001073,53.2172,11.2433,72.9955,287.1155,0.00022762,3.337e-05,0.0,0 STARLINK-4508,1 53559U 22101AJ  23133.95983339  .00003337  00000-0  22762-3 0  9992,2 53559  53.2172  11.2433 0001073  72.9955 287.1155 15.08844698 40704,6917.866,95.437,540.473,538.989,0.0
53559.0,STARLINK-4508,PAYLOAD,2023-05-14 19:42:10,15.0884019,0.0001139,53.2177,7.3795,91.1713,268.9409,0.0001343,1.85e-05,0.0,0 STARLINK-4508,1 53559U 22101AJ  23134.82095473  .00001850  00000-0  13430-3 0  9992,2 53559  53.2177   7.3795 0001139  91.1713 268.9409 15.08840190 40830,6917.88,95.438,540.533,538.957,0.0
53559.0,STARLINK-4508,PAYLOAD,2023-05-14 21:17:33,15.08842383,0.0001156,53.2174,7.0823,93.2384,266.874,0.00012059,1.632e-05,0.0,0 STARLINK-4508,1 53559U 22101AJ  23134.88719388  .00001632  00000-0  12059-3 0  9990,2 53559  53.2174   7.0823 0001156  93.2384 266.8740 15.08842383 40844,6917.873,95.437,540.538,538.938,0.0
53559.0,STARLINK-4508,PAYLOAD,2023-05-15 08:25:15,15.08842733,0.0001416,53.2174,5.0002,81.6185,278.4968,0.00014712,2.054e-05,0.0,0 STARLINK-4508,1 53559U 22101AJ  23135.35087440  .00002054  00000-0  14712-3 0  9997,2 53559  53.2174   5.0002 0001416  81.6185 278.4968 15.08842733 40918,6917.872,95.437,540.717,538.757,0.0
53559.0,STARLINK-4508,PAYLOAD,2023-05-15 22:43:43,15.08837359,0.0001247,53.2175,2.3256,85.2097,274.9038,4.0794e-05,3.61e-06,0.0,0 STARLINK-4508,1 53559U 22101AJ  23135.94703673  .00000361  00000-0  40794-4 0  9994,2 53559  53.2175   2.3256 0001247  85.2097 274.9038 15.08837359 41002,6917.888,95.438,540.616,538.891,0.0
53559.0,STARLINK-4508,PAYLOAD,2023-05-16 14:37:35,15.08839526,0.0001221,53.2176,359.3516,86.7232,273.39,2.6634e-05,1.36e-06,0.0,0 STARLINK-4508,1 53559U 22101AJ  23136.60943828  .00000136  00000-0  26634-4 0  9993,2 53559  53.2176 359.3516 0001221  86.7232 273.3900 15.08839526 41106,6917.882,95.438,540.592,538.902,0.0
53559.0,STARLINK-4508,PAYLOAD,2023-05-16 20:59:08,15.08839927,0.0001257,53.2174,358.1624,79.0744,281.039,3.5068e-05,2.7e-06,0.0,0 STARLINK-4508,1 53559U 22101AJ  23136.87439846  .00000270  00000-0  35068-4 0  9992,2 53559  53.2174 358.1624 0001257  79.0744 281.0390 15.08839927 41141,6917.881,95.438,540.615,538.876,0.0
53559.0,STARLINK-4508,PAYLOAD,2023-05-17 00:09:54,15.08841441,0.0001202,53.2169,357.5669,86.4313,273.6817,5.85e-05,6.43e-06,0.0,0 STARLINK-4508,1 53559U 22101AJ  23137.00687741  .00000643  00000-0  58500-4 0  9997,2 53559  53.2169 357.5669 0001202  86.4313 273.6817 15.08841441 41168,6917.876,95.437,540.573,538.909,0.0
53559.0,STARLINK-4508,PAYLOAD,2023-05-17 19:14:32,15.08836777,0.0001268,53.2166,353.9975,80.7367,279.3768,8.1671e-05,1.012e-05,0.0,0 STARLINK-4508,1 53559U 22101AJ  23137.80176196  .00001012  00000-0  81671-4 0  9998,2 53559  53.2166 353.9975 0001268  80.7367 279.3768 15.08836777 41280,6917.89,95.438,540.632,538.878,0.0
53559.0,STARLINK-4508,PAYLOAD,2023-05-17 20:49:55,15.08835897,0.0001214,53.217,353.6994,85.1358,274.9772,0.00010371,1.363e-05,0.0,0 STARLINK-4508,1 53559U 22101AJ  23137.86800169  .00001363  00000-0  10371-3 0  9995,2 53559  53.2170 353.6994 0001214  85.1358 274.9772 15.08835897 41292,6917.893,95.438,540.598,538.918,0.0
53559.0,STARLINK-4508,PAYLOAD,2023-05-18 01:36:04,15.08852677,0.0001216,53.2175,352.8075,79.4142,280.6987,-3.101e-05,-7.82e-06,0.0,0 STARLINK-4508,1 53559U 22101AJ  23138.06671485 -.00000782  00000-0 -31010-4 0  9995,2 53559  53.2175 352.8075 0001216  79.4142 280.6987 15.08852677 41328,6917.842,95.437,540.548,538.865,0.0
53559.0,STARLINK-4508,PAYLOAD,2023-05-18 20:40:41,15.08847025,0.0001236,53.2184,349.2383,90.544,269.5693,0.00010667,1.411e-05,0.0,0 STARLINK-4508,1 53559U 22101AJ  23138.86159464  .00001411  00000-0  10667-3 0  9993,2 53559  53.2184 349.2383 0001236  90.5440 269.5693 15.08847025 41441,6917.859,95.437,540.579,538.869,0.0
53559.0,STARLINK-4508,PAYLOAD,2023-05-19 17:20:42,15.08842328,9.87e-05,53.2183,345.3719,85.2566,274.8538,4.5456e-05,4.36e-06,0.0,0 STARLINK-4508,1 53559U 22101AJ  23139.72271902  .00000436  00000-0  45456-4 0  9992,2 53559  53.2183 345.3719 0000987  85.2566 274.8538 15.08842328 41574,6917.873,95.437,540.421,539.055,0.0
53559.0,STARLINK-4508,PAYLOAD,2023-05-19 20:31:28,15.08845428,9.75e-05,53.2173,344.7787,83.776,276.3343,6.3028e-05,7.16e-06,0.0,0 STARLINK-4508,1 53559U 22101AJ  23139.85519644  .00000716  00000-0  63028-4 0  9990,2 53559  53.2173 344.7787 0000975  83.7760 276.3343 15.08845428 41594,6917.864,95.437,540.403,539.054,0.0
53559.0,STARLINK-4508,PAYLOAD,2023-05-20 20:22:15,15.08850981,8.41e-05,53.2175,340.3184,76.1452,283.9634,0.00010519,1.387e-05,0.0,0 STARLINK-4508,1 53559U 22101AJ  23140.84878984  .00001387  00000-0  10519-3 0  9997,2 53559  53.2175 340.3184 0000841  76.1452 283.9634 15.08850981 41749,6917.847,95.437,540.294,539.13,0.0
53559.0,STARLINK-4508,PAYLOAD,2023-05-21 05:54:34,15.08849631,9.54e-05,53.2171,338.5344,75.4703,284.6395,0.0001481,2.071e-05,0.0,0 STARLINK-4508,1 53559U 22101AJ  23141.24622823  .00002071  00000-0  14810-3 0  9990,2 53559  53.2171 338.5344 0000954  75.4703 284.6395 15.08849631 41807,6917.851,95.437,540.376,539.056,0.0
53559.0,STARLINK-4508,PAYLOAD,2023-05-21 20:13:04,15.08831455,8.53e-05,53.2172,335.8571,68.5722,291.5361,-2.4186e-05,-6.72e-06,0.0,0 STARLINK-4508,1 53559U 22101AJ  23141.84241069 -.00000672  00000-0 -24186-4 0  9990,2 53559  53.2172 335.8571 0000853  68.5722 291.5361 15.08831455 41896,6917.907,95.438,540.362,539.181,0.0
53559.0,STARLINK-4508,PAYLOAD,2023-05-22 05:45:22,15.08842536,8.81e-05,53.2172,334.0733,89.7748,270.3345,5.0898e-05,5.22e-06,0.0,0 STARLINK-4508,1 53559U 22101AJ  23142.23984192  .00000522  00000-0  50898-4 0  9996,2 53559  53.2172 334.0733 0000881  89.7748 270.3345 15.08842536 41957,6917.873,95.437,540.347,539.128,0.0
53559.0,STARLINK-4508,PAYLOAD,2023-05-22 12:06:54,15.08843103,5.52e-05,53.2168,332.8839,98.9865,261.1189,0.00011527,1.548e-05,0.0,0 STARLINK-4508,1 53559U 22101AJ  23142.50479959  .00001548  00000-0  11527-3 0  9990,2 53559  53.2168 332.8839 0000552  98.9865 261.1189 15.08843103 41991,6917.871,95.437,540.118,539.354,0.0
53559.0,STARLINK-4508,PAYLOAD,2023-05-22 15:17:40,15.0885427,8.98e-05,53.2171,332.2894,91.6458,268.4637,0.00021075,3.069e-05,0.0,0 STARLINK-4508,1 53559U 22101AJ  23142.63727089  .00003069  00000-0  21075-3 0  9993,2 53559  53.2171 332.2894 0000898  91.6458 268.4637 15.08854270 42010,6917.837,95.437,540.323,539.081,0.0
53559.0,STARLINK-4508,PAYLOAD,2023-05-22 16:53:03,15.0885361,8.37e-05,53.2166,331.9924,98.9326,261.1761,0.00027945,4.164e-05,0.0,0 STARLINK-4508,1 53559U 22101AJ  23142.70351406  .00004164  00000-0  27945-3 0  9996,2 53559  53.2166 331.9924 0000837  98.9326 261.1761 15.08853610 42027,6917.839,95.437,540.283,539.125,0.0
